LEMUR-1                 
1 40044U 14033AL  26186.21396907  .00002824  00000+0  32803-3 0  9997
2 40044  97.7902 335.6207 0048609  20.7024 339.6146 14.85316181648149
LEMUR-2-GREENBERG       
1 42837U 17042N   26185.46590226  .00024909  00000+0  80942-3 0  9993
2 42837  97.3827   6.0171 0007279 305.7985  54.2579 15.31879629491039
LEMUR-2-ANDIS           
1 42838U 17042P   26185.25928255  .00033593  00000+0  97068-3 0  9994
2 42838  97.3685   6.0558 0007223 304.5319  55.5242 15.35550599491079
LEMUR-2-MONSON          
1 42839U 17042Q   26185.97058516  .00026672  00000+0  96004-3 0  9997
2 42839  97.4091   6.4648 0005185 292.4391  67.6299 15.28555048490886
LEMUR-2-FURIAUS         
1 42840U 17042R   26185.73310588  .00036173  00000+0  12101-2 0  9995
2 42840  97.3776   4.1987 0006868  10.1304 350.0075 15.30867625490898
LEMUR-2-PETERG          
1 42841U 17042S   26185.77546819  .00049530  00000+0  14666-2 0  9997
2 42841  97.3997  10.8423 0002819 271.4936  88.5984 15.34712984491139
LEMUR-2-DEMBITZ         
1 42842U 17042T   26185.75274329  .00033708  00000+0  11286-2 0  9995
2 42842  97.3827   7.2552 0005378 321.4252  38.6604 15.30862613491030
LEMUR-2-ZACHARY         
1 42845U 17042W   26185.80294224  .00099482  00000+0  16413-2 0  9998
2 42845  97.3587  17.8321 0002376 301.9276  58.1745 15.51927144491937
LEMUR-2-AMANDA-SVANTE   
1 48269U 21034B   26184.72218815  .00036457  00000+0  10612-2 0  9990
2 48269  97.5753 263.4542 0003868 168.8216 191.3113 15.35322296283594
LEMUR-2-SPECIAL-K       
1 48273U 21034F   26185.77232439  .00381670  00000+0  29528-2 0  9995
2 48273  97.5633 273.9758 0005614 222.1957 137.8874 15.70732789284443
LEMUR-2-EMBRIONOVIS     
1 56970U 23084AQ  26185.64091916  .00025842  00000+0  69115-3 0  9997
2 56970  97.6316 330.5169 0007641 248.0379 112.0053 15.38015741170363
LEMUR-2-DEVERILL-M-T    
1 57391U 23100F   26186.10076815  .00045721  00000+0  11163-2 0  9994
2 57391  99.4455 230.0436 0004918 341.2411  18.8647 15.40706658164006
LEMUR-2-BASS            
1 58259U 23174D   26186.16953492  .00029406  00000+0  65053-3 0  9990
2 58259  97.3843 271.1401 0008016 108.2263 251.9858 15.43739318148137
LEMUR-2-JK0903EM1407    
1 58336U 23174CJ  26186.19534682  .00041451  00000+0  67161-3 0  9991
2 58336  97.3920 277.1846 0004441  64.6529 295.5184 15.52668170148522
LEMUR-2-MJR092620       
1 58340U 23174CN  26186.16176460  .00031490  00000+0  65450-3 0  9990
2 58340  97.3972 276.5298 0006215  63.1184 297.0700 15.45583381148422
LEMUR-2-NIMBUS2000      
1 58899U 24022A   26186.07347341  .00037288  00000+0  90805-3 0  9993
2 58899  97.4091  36.3054 0009679  61.4495 298.7724 15.40789502135023
LEMUR-2-VALHALLA        
1 58900U 24022B   26186.07449198  .00026723  00000+0  66372-3 0  9993
2 58900  97.4088  36.2858 0010176  57.3327 302.8899 15.40253389135024
LEMUR-2-CAEL            
1 58903U 24022E   26186.06899327  .00029939  00000+0  71123-3 0  9990
2 58903  97.4072  37.2478 0008170  43.5743 316.6148 15.41599611135098
LEMUR-2-JOHNNYTRUONG    
1 59146U 24043BA  26185.39291360  .00056885  00000+0  65452-3 0  9999
2 59146  97.5391 338.1783 0004555 124.7433 235.4254 15.61818849130726
LEMUR-2-TOMATOKECHUP    
1 60471U 24149D   26186.21554149  .00018596  00000+0  52481-3 0  9993
2 60471  97.3792 268.3123 0002842 140.6819 219.4632 15.36432698104938
LEMUR-2-STELLA          
1 60533U 24149BT  26186.01648889  .00021169  00000+0  12267-2 0  9992
2 60533  97.6731 268.5536 0001304 102.2938 257.8438 15.12216531103198
LEMUR-2-MARHISYAM       
1 60536U 24149BW  26185.73865476  .00018366  00000+0  10829-2 0  9993
2 60536  97.6875 268.7409 0003054  86.6655 273.4924 15.11619799103136
LEMUR-2-AHMED-ASRAR     
1 60576U 24149DN  26186.21857125  .00021275  00000+0  12012-2 0  9992
2 60576  97.6999 271.3871 0000339 289.1354  70.9839 15.13151703103299
LEMUR-2-LLOYD           
1 60577U 24149DP  26185.74256076  .00018685  00000+0  11642-2 0  9997
2 60577  97.6742 266.8843 0005220  96.6367 263.5456 15.09601183103048
LEMUR-2-SQUIRRELCOMM    
1 60578U 24149DQ  26186.18010105  .00011441  00000+0  75981-3 0  9998
2 60578  97.6700 267.0364 0005001   3.1897 356.9362 15.07368905103113
LEMUR-2-SIERRINI        
1 60579U 24149DR  26186.03050089  .00020994  00000+0  12454-2 0  9996
2 60579  97.6839 268.7054 0006532 116.5122 243.6778 15.11356042103152
LEMUR-2-WILSON          
1 62694U 25009CP  26186.16396382  .00004183  00000+0  38521-3 0  9991
2 62694  97.7019 264.3134 0002728  10.9228 349.2051 14.95249439 80042
LEMUR-2-STAR-FOX        
1 62696U 25009CR  26186.20585590  .00013346  00000+0  10014-2 0  9996
2 62696  97.6931 267.6866 0003659  74.4899 285.6730 15.02759310 80261
LEMUR-2-ARIANNA         
1 62699U 25009CU  26186.13773632  .00013778  00000+0  10336-2 0  9993
2 62699  97.6871 267.3793 0004010  79.3835 280.7841 15.02755968 80252
